HST                     
1 20580U 90037B   26052.56349540  .00007071  00000+0  23461-3 0  9998
2 20580  28.4686 149.9853 0001090 298.8097  61.2389 15.29203976770842
POLAR                   
1 23802U 96013A   26052.50367817  .00000268  00000+0  00000+0 0  9990
2 23802  79.7261 228.3702 6353068 212.9992  83.1498  1.29845862143352
SWAS                    
1 25560U 98071A   26052.49106856  .00005008  00000+0  32506-3 0  9998
2 25560  69.8967 165.6857 0002908  52.0105 308.1321 15.08704946479816
CXO                     
1 25867U 99040B   26055.66410191  .00000964  00000+0  00000+0 0  9993
2 25867  54.3475 120.0248 8022300 310.7542   0.2480  0.37806368 16891
XMM-NEWTON              
1 25989U 99066A   26053.66352875  .00000176  00000+0  00000+0 0  9993
2 25989  65.0633 284.4839 4718265  66.9382 359.9197  0.50126610 22427
TERRA                   
1 25994U 99068A   26052.63999335  .00000352  00000+0  80762-4 0  9999
2 25994  97.9629 106.6851 0001553 196.5563 325.4378 14.60995630392738
CLUSTER II-FM7 (SAMBA)  
1 26410U 00041A   26052.09269740  .00004559  00000+0  00000+0 0  9991
2 26410 148.8393  33.2180 8891072 249.2471 359.5516  0.44801619 19784
CLUSTER II-FM8 (TANGO)  
1 26464U 00045B   26049.06287973  .00004776  00000+0  00000+0 0  9996
2 26464 149.0711  33.5376 8890045 249.4570 359.4915  0.44405995 19768
ODIN                    
1 26702U 01007A   26052.60383243  .00036302  00000+0  50190-3 0  9990
2 26702  97.4106  88.0060 0002988 181.9592 178.1652 15.57055424371335
TIMED                   
1 26998U 01055B   26052.51864583  .00001123  00000+0  10642-3 0  9992
2 26998  74.0671 107.8683 0002724 294.3335  65.7565 14.94968599313531
CORIOLIS                
1 27640U 03001A   26052.49227392  .00000120  00000+0  77011-4 0  9998
2 27640  98.7161  61.1311 0013938 181.8468 178.2660 14.19905666197808
SORCE                   
1 27651U 03004A   26052.48671347  .00003648  00000+0  27679-3 0  9997
2 27651  39.9898 201.4462 0018089 298.6656  61.2319 15.02950692254480
MOST                    
1 27843U 03031D   26052.47800906  .00000061  00000+0  48003-4 0  9995
2 27843  98.7083  61.8034 0009053 222.0522 137.9961 14.21294344174276
SCISAT 1                
1 27858U 03036A   26052.40664660  .00000743  00000+0  99870-4 0  9999
2 27858  73.9295  41.3575 0006199 141.6104 218.5515 14.81274425214309
SWIFT                   
1 28485U 04047A   26052.09518321  .00041415  00000+0  52206-3 0  9998
2 28485  20.5548 353.3363 0002602 156.9817 203.0744 15.57755701168677
HINODE (SOLAR-B)        
1 29479U 06041A   26052.49064751  .00000647  00000+0  12002-3 0  9997
2 29479  98.0632  70.3176 0016250 297.2375  62.7174 14.68444438 37894
SHIJIAN-6 02A (SJ-6 02A)
1 29505U 06046A   26052.60158307  .00006014  00000+0  32170-3 0  9998
2 29505  97.6521  92.8279 0003657 152.7870 207.3555 15.15434443 54753
SHIJIAN-6 02B (SJ-6 02B)
1 29506U 06046B   26052.49819993  .00002358  00000+0  18955-3 0  9993
2 29506  97.7024  82.3685 0014196  93.3189 266.9659 15.00909452 53386
FGRST (GLAST)           
1 33053U 08029A   26052.04403423  .00003648  00000+0  13608-3 0  9999
2 33053  25.5823 290.5051 0008753  38.5520 321.5642 15.23192424978100
SDO                     
1 36395U 10005A   26049.08485580 -.00000059  00000+0  00000+0 0  9994
2 36395  34.3980  88.1509 0000568 148.4244 199.9931  1.00275964 58864
CRYOSAT 2               
1 36508U 10013A   26052.57154287  .00000286  00000+0  70197-4 0  9994
2 36508  92.0220 249.2973 0002245  83.2416 276.9047 14.51901149841308
X-SAT                   
1 37389U 11015C   26052.59563215 -.00000019  00000+0  94244-5 0  9997
2 37389  98.3404  35.1967 0013515 327.1254  32.9085 14.25164292771211
GCOM-W1 (SHIZUKU)       
1 38337U 12025A   26052.47237973  .00000584  00000+0  13966-3 0  9995
2 38337  98.2035 354.7787 0001599  81.9950  34.3348 14.57071485732188
NUSTAR                  
1 38358U 12031A   26052.58335648  .00007847  00000+0  44761-3 0  9991
2 38358   6.0247 180.4787 0008397 193.4939 146.2028 15.07459923  1300
NEOSSAT                 
1 39089U 13009D   26052.45845134  .00000157  00000+0  69196-4 0  9998
2 39089  98.4123 235.2549 0010157 227.4217 132.6113 14.35775737680131
BRITE-AUSTRIA           
1 39091U 13009F   26052.44475558  .00000204  00000+0  84007-4 0  9990
2 39091  98.3938 234.7595 0009443 220.9169 139.1310 14.36485350680436
IRIS                    
1 39197U 13033A   26052.52990130  .00001340  00000+0  16055-3 0  9990
2 39197  97.9398 252.1260 0024122 340.2262  19.8016 14.85587784683205
HISAKI (SPRINT-A)       
1 39253U 13049A   26052.49970288  .00000106  00000+0  54083-4 0  9991
2 39253  29.7195  88.1643 0136712 158.8770 201.7514 13.55528994615714
CASSIOPE                
1 39265U 13055A   26052.53710153  .00038912 -64211-6  47403-3 0  9994
2 39265  80.9175 206.3386 0320647  90.0674 273.7293 15.17409545650086
STSAT-3                 
1 39422U 13066G   26052.55741539  .00001819  00000+0  14332-3 0  9994
2 39422  97.6071  24.4965 0013551  68.0153 292.2510 15.01952431666842
SWARM B                 
1 39451U 13067A   26052.55597831  .00004121  00000+0  15118-3 0  9993
2 39451  87.7470  17.3763 0003556  95.7366 264.4288 15.27680759665583
SWARM A                 
1 39452U 13067B   26052.56722217  .00009965  00000+0  18771-3 0  9992
2 39452  87.3304  99.1302 0002958  93.0065 267.1533 15.48350185688347
SWARM C                 
1 39453U 13067C   26052.56710391  .00009852  00000+0  18559-3 0  9992
2 39453  87.3302  97.7125 0002960  93.0126 267.1473 15.48347601688302
BRITE-CA1 (TORONTO)     
1 40020U 14033L   26052.31964176  .00001009  00000+0  16008-3 0  9996
2 40020  97.9542 183.5287 0077715 288.1323  71.1433 14.72411960625166
OCO 2                   
1 40059U 14035A   26052.58438805  .00000489  00000+0  11841-3 0  9995
2 40059  98.2294 355.6444 0001282  68.9890 291.1445 14.57157432619212
BRITE-PL2 (HEWELIUSZ)   
1 40119U 14049B   26052.26549205  .00002408  00000+0  23046-3 0  9992
2 40119  97.8980 163.5028 0015278 131.0207 229.2336 14.94088194624131
MMS 1                   
1 40482U 15011A   26052.58335648 -.00001781  00000+0  00000+0 0  9999
2 40482  70.6206 350.3583 8418188 165.1262  26.7974  0.28276250  1300
MMS 2                   
1 40483U 15011B   26052.58335648 -.00001781  00000+0  00000+0 0  9990
2 40483  70.6209 350.3604 8418918 165.1324  26.7802  0.28276198  1309
MMS 3                   
1 40484U 15011C   26052.58335648 -.00001780  00000+0  00000+0 0  9990
2 40484  70.6231 350.3654 8418011 165.1237  26.7987  0.28281454  1302
MMS 4                   
1 40485U 15011D   26052.58335648 -.00001780  00000+0  00000+0 0  9991
2 40485  70.6214 350.3604 8417507 165.1310  26.7836  0.28281383  1304
ASTROSAT                
1 40930U 15052A   26051.96842367  .00001859  00000+0  14553-3 0  9991
2 40930   5.9966 271.7696 0007943 179.5453 180.4682 14.82245061562553
DAMPE                   
1 41173U 15078A   26052.58573300  .00001671  00000+0  59284-4 0  9999
2 41173  97.4572  57.5027 0013434 121.3823 238.8734 15.30435294566865
PISAT                   
1 41784U 16059B   26052.61114083  .00000934  00000+0  16744-3 0  9994
2 41784  97.8187  58.0515 0028257 212.4372 147.5099 14.68728408502779
HXMT (HUIYAN)           
1 42758U 17034A   26052.58404572  .00004722  00000+0  24202-3 0  9998
2 42758  43.0136 106.1982 0030856 134.4309 225.9071 15.17244056480090
FLYING LAPTOP           
1 42831U 17042G   26052.57275081  .00003262  00000+0  26332-3 0  9993
2 42831  97.4238 212.9693 0017158 149.2048 211.0186 15.00395588469119
ZHANGHENG 1-01 (CSES-1) 
1 43194U 18015C   26052.60118362  .00009195  00000+0  42077-3 0  9994
2 43194  97.6730 216.0360 0014986 304.3918  55.5899 15.20653687447075
SALSAT                  
1 46495U 20068K   26052.49779992  .00008403  00000+0  31189-3 0  9994
2 46495  97.8848  48.6943 0010040   0.1131   0.0108 15.27816502297687
IXPE                    
1 49954U 21121A   26052.58335648  .00011801  00000+0  66810-3 0  9999
2 49954   0.2298 110.5212 0007706 133.7080 150.2914 15.08972043  5778
